NORAD_CAT_ID,OBJECT_NAME,OBJECT_TYPE,EPOCH,MEAN_MOTION,ECCENTRICITY,INCLINATION,RA_OF_ASC_NODE,ARG_OF_PERICENTER,MEAN_ANOMALY,BSTAR,MEAN_MOTION_DOT,MEAN_MOTION_DDOT,TLE_LINE0,TLE_LINE1,TLE_LINE2,SEMIMAJOR_AXIS,PERIOD,APOGEE,PERIGEE,DECAYED
52334.0,STARLINK-3880,PAYLOAD,2023-05-18 07:41:03,15.08837275,0.0001227,53.216,136.6678,85.2834,274.8299,2.7342e-06,-2.44e-06,0.0,0 STARLINK-3880,1 52334U 22045D   23138.32017978 -.00000244  00000-0  27342-5 0  9998,2 52334  53.2160 136.6678 0001227  85.2834 274.8299 15.08837275 60682,6917.889,95.438,540.603,538.905,0.0
52334.0,STARLINK-3880,PAYLOAD,2023-05-18 18:48:45,15.08839399,0.0001228,53.216,134.5865,84.2883,275.8249,2.0589e-05,4e-07,0.0,0 STARLINK-3880,1 52334U 22045D   23138.78385822  .00000040  00000-0  20589-4 0  9992,2 52334  53.2160 134.5865 0001228  84.2883 275.8249 15.08839399 60754,6917.882,95.438,540.597,538.898,0.0
52334.0,STARLINK-3880,PAYLOAD,2023-05-19 05:56:27,15.0884139,0.0001227,53.216,132.5049,84.2767,275.8365,4.4285e-05,4.17e-06,0.0,0 STARLINK-3880,1 52334U 22045D   23139.24753615  .00000417  00000-0  44285-4 0  9990,2 52334  53.2160 132.5049 0001227  84.2767 275.8365 15.08841390 60827,6917.876,95.437,540.59,538.892,0.0
52334.0,STARLINK-3880,PAYLOAD,2023-05-19 17:04:08,15.08841854,0.0001227,53.2162,130.4238,82.4394,277.6738,5.8261e-05,6.4e-06,0.0,0 STARLINK-3880,1 52334U 22045D   23139.71121499  .00000640  00000-0  58261-4 0  9998,2 52334  53.2162 130.4238 0001227  82.4394 277.6738 15.08841854 60898,6917.875,95.437,540.589,538.891,0.0
52334.0,STARLINK-3880,PAYLOAD,2023-05-20 05:47:13,15.08842733,0.0001221,53.2163,128.0449,83.7525,276.3606,0.0001013,1.325e-05,0.0,0 STARLINK-3880,1 52334U 22045D   23140.24113365  .00001325  00000-0  10130-3 0  9994,2 52334  53.2163 128.0449 0001221  83.7525 276.3606 15.08842733 60976,6917.872,95.437,540.582,538.892,0.0
52334.0,STARLINK-3880,PAYLOAD,2023-05-21 05:38:00,15.0884739,0.000124,53.2163,123.5835,86.6266,273.4868,6.9549e-05,8.19e-06,0.0,0 STARLINK-3880,1 52334U 22045D   23141.23472921  .00000819  00000-0  69549-4 0  9996,2 52334  53.2163 123.5835 0001240  86.6266 273.4868 15.08847390 61120,6917.858,95.437,540.581,538.865,0.0
52334.0,STARLINK-3880,PAYLOAD,2023-05-21 21:31:52,15.08835377,0.0001129,53.2164,120.6114,82.7757,277.3363,-3.1235e-05,-7.85e-06,0.0,0 STARLINK-3880,1 52334U 22045D   23141.89714073 -.00000785  00000-0 -31235-4 0  9990,2 52334  53.2164 120.6114 0001129  82.7757 277.3363 15.08835377 61223,6917.895,95.438,540.541,538.978,0.0
52334.0,STARLINK-3880,PAYLOAD,2023-05-21 23:07:16,15.08834745,0.0001144,53.2169,120.3136,82.53,277.5822,-3.7247e-05,-8.8e-06,0.0,0 STARLINK-3880,1 52334U 22045D   23141.96338171 -.00000880  00000-0 -37247-4 0  9994,2 52334  53.2169 120.3136 0001144  82.5300 277.5822 15.08834745 61239,6917.896,95.438,540.553,538.97,0.0
52334.0,STARLINK-3880,PAYLOAD,2023-05-22 08:39:35,15.08836218,0.0001125,53.2159,118.5289,81.0357,279.0762,-4.0338e-05,-9.3e-06,0.0,0 STARLINK-3880,1 52334U 22045D   23142.36082202 -.00000930  00000-0 -40338-4 0  9991,2 52334  53.2159 118.5289 0001125  81.0357 279.0762 15.08836218 61294,6917.892,95.438,540.535,538.979,0.0
52334.0,STARLINK-3880,PAYLOAD,2023-05-22 15:01:07,15.08837446,0.0001131,53.2161,117.3397,81.174,278.938,-4.2625e-06,-3.56e-06,0.0,0 STARLINK-3880,1 52334U 22045D   23142.62578095 -.00000356  00000-0 -42625-5 0  9994,2 52334  53.2161 117.3397 0001131  81.1740 278.9380 15.08837446 61331,6917.888,95.438,540.536,538.971,0.0
52334.0,STARLINK-3880,PAYLOAD,2023-05-23 02:08:49,15.08838865,0.0001188,53.2169,115.2579,92.5443,267.5685,-1.2958e-05,-4.94e-06,0.0,0 STARLINK-3880,1 52334U 22045D   23143.08946153 -.00000494  00000-0 -12958-4 0  9997,2 52334  53.2169 115.2579 0001188  92.5443 267.5685 15.08838865 61402,6917.884,95.438,540.571,538.927,0.0
52334.0,STARLINK-3880,PAYLOAD,2023-05-23 05:19:35,15.08840685,0.0001152,53.2165,114.6637,84.3174,275.7949,9.7947e-06,-1.32e-06,0.0,0 STARLINK-3880,1 52334U 22045D   23143.22194025 -.00000132  00000-0  97947-5 0  9996,2 52334  53.2165 114.6637 0001152  84.3174 275.7949 15.08840685 61426,6917.878,95.438,540.54,538.946,0.0
52334.0,STARLINK-3880,PAYLOAD,2023-05-24 06:45:46,15.08836239,0.0001152,53.2167,109.906,93.9742,266.1382,0.00012743,1.741e-05,0.0,0 STARLINK-3880,1 52334U 22045D   23144.28178373  .00001741  00000-0  12743-3 0  9996,2 52334  53.2167 109.9060 0001152  93.9742 266.1382 15.08836239 61584,6917.892,95.438,540.554,538.96,0.0
52334.0,STARLINK-3880,PAYLOAD,2023-05-26 03:16:33,15.08841274,0.0001327,53.2174,101.577,90.3338,269.7806,5.5898e-05,6.02e-06,0.0,0 STARLINK-3880,1 52334U 22045D   23146.13650426  .00000602  00000-0  55898-4 0  9990,2 52334  53.2174 101.5770 0001327  90.3338 269.7806 15.08841274 61860,6917.876,95.437,540.659,538.823,0.0
52334.0,STARLINK-3880,PAYLOAD,2023-05-27 03:07:21,15.08838177,0.0001343,53.217,97.1189,85.8514,274.2632,2.5998e-06,-2.47e-06,0.0,0 STARLINK-3880,1 52334U 22045D   23147.13010891 -.00000247  00000-0  25998-5 0  9992,2 52334  53.2170  97.1189 0001343  85.8514 274.2632 15.08838177 62017,6917.886,95.438,540.68,538.822,0.0
52334.0,STARLINK-3880,PAYLOAD,2023-05-27 14:15:03,15.08840708,0.0001391,53.2168,95.0389,82.6545,277.4605,2.1029e-05,4.7e-07,0.0,0 STARLINK-3880,1 52334U 22045D   23147.59378712  .00000047  00000-0  21029-4 0  9998,2 52334  53.2168  95.0389 0001391  82.6545 277.4605 15.08840708 62080,6917.878,95.438,540.706,538.781,0.0
52334.0,STARLINK-3880,PAYLOAD,2023-05-28 02:58:07,15.08844736,0.0001355,53.2172,92.659,85.0439,275.0708,0.00010268,1.347e-05,0.0,0 STARLINK-3880,1 52334U 22045D   23148.12370099  .00001347  00000-0  10268-3 0  9994,2 52334  53.2172  92.6590 0001355  85.0439 275.0708 15.08844736 62163,6917.866,95.437,540.668,538.794,0.0
52334.0,STARLINK-3880,PAYLOAD,2023-05-29 02:48:55,15.08841305,0.0001307,53.2182,88.1981,85.1479,274.9662,7.3679e-05,8.85e-06,0.0,0 STARLINK-3880,1 52334U 22045D   23149.11730389  .00000885  00000-0  73679-4 0  9998,2 52334  53.2182  88.1981 0001307  85.1479 274.9662 15.08841305 62313,6917.876,95.437,540.646,538.837,0.0
52334.0,STARLINK-3880,PAYLOAD,2023-05-29 05:59:41,15.0884151,0.0001303,53.2183,87.6034,84.5756,275.5385,7.3003e-05,8.74e-06,0.0,0 STARLINK-3880,1 52334U 22045D   23149.24978358  .00000874  00000-0  73003-4 0  9991,2 52334  53.2183  87.6034 0001303  84.5756 275.5385 15.08841510 62333,6917.876,95.437,540.642,538.839,0.0
52334.0,STARLINK-3880,PAYLOAD,2023-05-30 02:39:42,15.08835143,0.0001225,53.2183,83.7399,92.3968,267.7164,-5.035e-05,-1.089e-05,0.0,0 STARLINK-3880,1 52334U 22045D   23150.11091350 -.00001089  00000-0 -50350-4 0  9998,2 52334  53.2183  83.7399 0001225  92.3968 267.7164 15.08835143 62466,6917.895,95.438,540.608,538.913,0.0
52334.0,STARLINK-3880,PAYLOAD,2023-05-31 02:30:29,15.08843522,0.0001103,53.2177,79.2782,88.3904,271.7215,2.8437e-05,1.65e-06,0.0,0 STARLINK-3880,1 52334U 22045D   23151.10450851  .00000165  00000-0  28437-4 0  9996,2 52334  53.2177  79.2782 0001103  88.3904 271.7215 15.08843522 62614,6917.87,95.437,540.498,538.972,0.0
52334.0,STARLINK-3880,PAYLOAD,2023-05-31 21:35:07,15.08836111,0.0001157,53.2176,75.7116,107.7193,252.3925,7.3091e-05,8.75e-06,0.0,0 STARLINK-3880,1 52334U 22045D   23151.89939411  .00000875  00000-0  73091-4 0  9990,2 52334  53.2176  75.7116 0001157 107.7193 252.3925 15.08836111 62732,6917.892,95.438,540.558,538.957,0.0
52334.0,STARLINK-3880,PAYLOAD,2023-06-01 02:21:16,15.08839623,0.0001172,53.2174,74.8197,108.8194,251.2925,0.00010094,1.319e-05,0.0,0 STARLINK-3880,1 52334U 22045D   23152.09811162  .00001319  00000-0  10094-3 0  9992,2 52334  53.2174  74.8197 0001172 108.8194 251.2925 15.08839623 62761,6917.882,95.438,540.557,538.936,0.0
52334.0,STARLINK-3880,PAYLOAD,2023-06-01 03:56:39,15.08841651,0.0001117,53.2176,74.5216,100.309,259.8028,0.00011437,1.533e-05,0.0,0 STARLINK-3880,1 52334U 22045D   23152.16435040  .00001533  00000-0  11437-3 0  9997,2 52334  53.2176  74.5216 0001117 100.3090 259.8028 15.08841651 62776,6917.875,95.437,540.513,538.968,0.0
52334.0,STARLINK-3880,PAYLOAD,2023-06-02 02:12:04,15.08817292,0.0001322,53.2179,70.3587,91.4294,268.685,0.00045005,6.877e-05,0.0,0 STARLINK-3880,1 52334U 22045D   23153.09171570  .00006877  00000-0  45005-3 0  9999,2 52334  53.2179  70.3587 0001322  91.4294 268.6850 15.08817292 62919,6917.95,95.439,540.729,538.9,0.0
52334.0,STARLINK-3880,PAYLOAD,2023-06-02 03:47:27,15.08818435,0.0001353,53.218,70.061,91.5532,268.5615,0.00048359,7.412e-05,0.0,0 STARLINK-3880,1 52334U 22045D   23153.15795474  .00007412  00000-0  48359-3 0  9992,2 52334  53.2180  70.0610 0001353  91.5532 268.5615 15.08818435 62924,6917.946,95.439,540.747,538.875,0.0
52334.0,STARLINK-3880,PAYLOAD,2023-06-03 00:27:28,15.08837733,0.0001234,53.2182,66.1942,87.7463,272.367,7.9762e-07,-2.75e-06,0.0,0 STARLINK-3880,1 52334U 22045D   23154.01907967 -.00000275  00000-0  79762-6 0  9996,2 52334  53.2182  66.1942 0001234  87.7463 272.3670 15.08837733 63059,6917.887,95.438,540.606,538.899,0.0
52334.0,STARLINK-3880,PAYLOAD,2023-06-03 17:56:42,15.08844096,0.0001199,53.2185,62.9227,84.9975,275.1154,2.265e-05,7.3e-07,0.0,0 STARLINK-3880,1 52334U 22045D   23154.74771600  .00000073  00000-0  22650-4 0  9996,2 52334  53.2185  62.9227 0001199  84.9975 275.1154 15.08844096 63169,6917.868,95.437,540.562,538.903,0.0
52334.0,STARLINK-3880,PAYLOAD,2023-06-03 21:07:28,15.08845727,0.0001192,53.2178,62.3306,74.1935,285.9188,4.9281e-05,4.97e-06,0.0,0 STARLINK-3880,1 52334U 22045D   23154.88019428  .00000497  00000-0  49281-4 0  9993,2 52334  53.2178  62.3306 0001192  74.1935 285.9188 15.08845727 63183,6917.863,95.437,540.552,538.903,0.0
52334.0,STARLINK-3880,PAYLOAD,2023-06-04 00:18:14,15.08850841,0.000122,53.2182,61.7337,86.743,273.3701,9.127e-05,1.165e-05,0.0,0 STARLINK-3880,1 52334U 22045D   23155.01266935  .00001165  00000-0  91270-4 0  9994,2 52334  53.2182  61.7337 0001220  86.7430 273.3701 15.08850841 63204,6917.847,95.437,540.556,538.868,0.0
